NORAD_CAT_ID,OBJECT_NAME,OBJECT_TYPE,EPOCH,MEAN_MOTION,ECCENTRICITY,INCLINATION,RA_OF_ASC_NODE,ARG_OF_PERICENTER,MEAN_ANOMALY,BSTAR,MEAN_MOTION_DOT,MEAN_MOTION_DDOT,TLE_LINE0,TLE_LINE1,TLE_LINE2,SEMIMAJOR_AXIS,PERIOD,APOGEE,PERIGEE,DECAYED
55279.0,STARLINK-5323,PAYLOAD,2023-10-22 19:04:11,14.98350626,0.0002626,69.9994,75.2572,255.785,104.3017,-0.0004999,-6.056e-05,0.0,0 STARLINK-5323,1 55279U 23010L   23295.79457985 -.00006056  00000-0 -49990-3 0  9992,2 55279  69.9994  75.2572 0002626 255.7850 104.3017 14.98350626 42312,6950.129,96.106,573.819,570.169,0.0
55279.0,STARLINK-5323,PAYLOAD,2023-10-23 03:04:52,14.98330714,0.0003128,69.9997,74.4178,269.3944,90.6856,1.7066e-05,1.11e-06,0.0,0 STARLINK-5323,1 55279U 23010L   23296.12838718  .00000111  00000-0  17066-4 0  9991,2 55279  69.9997  74.4178 0003128 269.3944  90.6856 14.98330714 42360,6950.191,96.107,574.23,569.882,0.0
55279.0,STARLINK-5323,PAYLOAD,2023-10-23 19:06:12,14.98337608,0.0003102,69.9998,72.7342,268.7226,91.3578,9.3331e-05,1.021e-05,0.0,0 STARLINK-5323,1 55279U 23010L   23296.79597991  .00001021  00000-0  93331-4 0  9999,2 55279  69.9998  72.7342 0003102 268.7226  91.3578 14.98337608 42462,6950.169,96.107,574.19,569.878,0.0
55279.0,STARLINK-5323,PAYLOAD,2023-10-24 11:07:33,14.98330235,0.00031,70.0,71.0508,267.7321,92.3483,0.00016497,1.876e-05,0.0,0 STARLINK-5323,1 55279U 23010L   23297.46358299  .00001876  00000-0  16497-3 0  9995,2 55279  70.0000  71.0508 0003100 267.7321  92.3483 14.98330235 42564,6950.192,96.107,574.212,569.903,0.0
55279.0,STARLINK-5323,PAYLOAD,2023-10-25 14:21:50,14.98330924,0.0002877,70.0007,68.1899,270.4941,89.5888,-3.0585e-05,-4.58e-06,0.0,0 STARLINK-5323,1 55279U 23010L   23298.59850580 -.00000458  00000-0 -30585-4 0  9992,2 55279  70.0007  68.1899 0002877 270.4941  89.5888 14.98330924 42731,6950.19,96.107,574.055,570.055,0.0
55279.0,STARLINK-5323,PAYLOAD,2023-10-26 12:47:43,14.98333831,0.0002983,70.0008,65.8335,273.5216,86.5602,7.6928e-05,8.25e-06,0.0,0 STARLINK-5323,1 55279U 23010L   23299.53313965  .00000825  00000-0  76928-4 0  9995,2 55279  70.0008  65.8335 0002983 273.5216  86.5602 14.98333831 43190,6950.181,96.107,574.119,569.973,0.0
55279.0,STARLINK-5323,PAYLOAD,2023-10-26 17:36:07,14.9833745,0.0002919,70.0009,65.3284,273.3309,86.7516,5.8811e-05,6.09e-06,0.0,0 STARLINK-5323,1 55279U 23010L   23299.73341715  .00000609  00000-0  58811-4 0  9992,2 55279  70.0009  65.3284 0002919 273.3309  86.7516 14.98337450 42904,6950.17,96.107,574.064,570.006,0.0
55279.0,STARLINK-5323,PAYLOAD,2023-10-27 14:25:51,14.98370259,0.0003152,70.001,63.1413,270.142,89.9378,-0.00048592,-5.892e-05,0.0,0 STARLINK-5323,1 55279U 23010L   23300.60128493 -.00005892  00000-0 -48592-3 0  9992,2 55279  70.0010  63.1413 0003152 270.1420  89.9378 14.98370259 43350,6950.068,96.104,574.124,569.743,0.0
55279.0,STARLINK-5323,PAYLOAD,2023-10-28 11:15:37,14.98321751,0.0003019,70.001,60.9534,270.3692,89.7121,-9.3949e-05,-1.214e-05,0.0,0 STARLINK-5323,1 55279U 23010L   23301.46918893 -.00001214  00000-0 -93949-4 0  9999,2 55279  70.0010  60.9534 0003019 270.3692  89.7121 14.98321751 43160,6950.218,96.108,574.182,569.985,0.0
55279.0,STARLINK-5323,PAYLOAD,2023-10-28 14:27:53,14.98325907,0.000302,70.0008,60.616,269.9518,90.1295,-6.7841e-05,-9.02e-06,0.0,0 STARLINK-5323,1 55279U 23010L   23301.60270586 -.00000902  00000-0 -67841-4 0  9990,2 55279  70.0008  60.6160 0003020 269.9518  90.1295 14.98325907 43505,6950.206,96.107,574.17,569.972,0.0
55279.0,STARLINK-5323,PAYLOAD,2023-10-28 17:40:09,14.98326042,0.0002992,70.0009,60.2799,269.5077,90.5739,-5.6615e-05,-7.68e-06,0.0,0 STARLINK-5323,1 55279U 23010L   23301.73622597 -.00000768  00000-0 -56615-4 0  9994,2 55279  70.0009  60.2799 0002992 269.5077  90.5739 14.98326042 43523,6950.205,96.107,574.15,569.991,0.0
55279.0,STARLINK-5323,PAYLOAD,2023-10-29 01:40:49,14.98333976,0.000303,70.0007,59.4381,269.456,90.6252,1.5768e-05,9.5e-07,0.0,0 STARLINK-5323,1 55279U 23010L   23302.07001945  .00000095  00000-0  15768-4 0  9995,2 55279  70.0007  59.4381 0003030 269.4560  90.6252 14.98333976 43253,6950.181,96.107,574.152,569.94,0.0
55279.0,STARLINK-5323,PAYLOAD,2023-10-29 11:17:37,14.98342997,0.0003092,70.0004,58.427,269.4578,90.6226,0.00017504,1.997e-05,0.0,0 STARLINK-5323,1 55279U 23010L   23302.47056976  .00001997  00000-0  17504-3 0  9994,2 55279  70.0004  58.4270 0003092 269.4578  90.6226 14.98342997 43314,6950.153,96.106,574.167,569.869,0.0
55279.0,STARLINK-5323,PAYLOAD,2023-10-29 14:29:52,14.98349523,0.0003246,70.0003,58.0908,269.0895,90.9892,0.00023177,2.675e-05,0.0,0 STARLINK-5323,1 55279U 23010L   23302.60408407  .00002675  00000-0  23177-3 0  9996,2 55279  70.0003  58.0908 0003246 269.0895  90.9892 14.98349523 43657,6950.133,96.106,574.254,569.742,0.0
55279.0,STARLINK-5323,PAYLOAD,2023-10-29 17:42:09,14.9835202,0.0003211,70.0019,57.754,269.1249,90.9542,0.00045773,5.376e-05,0.0,0 STARLINK-5323,1 55279U 23010L   23302.73760731  .00005376  00000-0  45773-3 0  9998,2 55279  70.0019  57.7540 0003211 269.1249  90.9542 14.98352020 43678,6950.125,96.106,574.221,569.758,0.0
55279.0,STARLINK-5323,PAYLOAD,2023-10-30 11:19:38,14.98335175,0.0003117,70.0024,55.9026,269.8551,90.225,0.00026124,3.026e-05,0.0,0 STARLINK-5323,1 55279U 23010L   23303.47197732  .00003026  00000-0  26124-3 0  9994,2 55279  70.0024  55.9026 0003117 269.8551  90.2250 14.98335175 43469,6950.177,96.107,574.208,569.876,0.0
55279.0,STARLINK-5323,PAYLOAD,2023-10-30 14:31:54,14.98334481,0.0003061,70.0028,55.5659,269.911,90.1698,0.00014702,1.662e-05,0.0,0 STARLINK-5323,1 55279U 23010L   23303.60549418  .00001662  00000-0  14702-3 0  9994,2 55279  70.0028  55.5659 0003061 269.9110  90.1698 14.98334481 43803,6950.179,96.107,574.171,569.917,0.0
55279.0,STARLINK-5323,PAYLOAD,2023-10-31 09:45:31,14.98327699,0.0002952,70.0027,53.5465,270.7567,89.3254,0.00049674,5.839e-05,0.0,0 STARLINK-5323,1 55279U 23010L   23304.40662021  .00005839  00000-0  49674-3 0  9995,2 55279  70.0027  53.5465 0002952 270.7567  89.3254 14.98327699 43608,6950.2,96.107,574.117,570.013,0.0
55279.0,STARLINK-5323,PAYLOAD,2023-10-31 14:33:56,14.98328739,0.0002947,70.0026,53.0416,270.6488,89.4333,0.00035052,4.092e-05,0.0,0 STARLINK-5323,1 55279U 23010L   23304.60690044  .00004092  00000-0  35052-3 0  9998,2 55279  70.0026  53.0416 0002947 270.6488  89.4333 14.98328739 43956,6950.197,96.107,574.11,570.014,0.0
55279.0,STARLINK-5323,PAYLOAD,2023-10-31 17:46:12,14.98335172,0.0003006,70.0026,52.7046,271.5134,88.5681,0.00035221,4.113e-05,0.0,0 STARLINK-5323,1 55279U 23010L   23304.74041851  .00004113  00000-0  35221-3 0  9991,2 55279  70.0026  52.7046 0003006 271.5134  88.5681 14.98335172 43973,6950.177,96.107,574.131,569.953,0.0
55279.0,STARLINK-5323,PAYLOAD,2023-11-01 11:23:41,14.98333955,0.0002613,70.0038,50.8523,275.587,84.4991,0.00033406,3.896e-05,0.0,0 STARLINK-5323,1 55279U 23010L   23305.47478087  .00003896  00000-0  33406-3 0  9997,2 55279  70.0038  50.8523 0002613 275.5870  84.4991 14.98333955 43762,6950.181,96.107,573.862,570.23,0.0
55279.0,STARLINK-5323,PAYLOAD,2023-11-01 14:35:57,14.98336293,0.0002655,70.0035,50.5159,273.8464,86.2391,0.00036596,4.277e-05,0.0,0 STARLINK-5323,1 55279U 23010L   23305.60829915  .00004277  00000-0  36596-3 0  9999,2 55279  70.0035  50.5159 0002655 273.8464  86.2391 14.98336293 44108,6950.173,96.107,573.884,570.193,0.0
55279.0,STARLINK-5323,PAYLOAD,2023-11-01 16:12:05,14.98338007,0.0002587,70.0039,50.3475,275.8213,84.2651,0.00036594,4.277e-05,0.0,0 STARLINK-5323,1 55279U 23010L   23305.67505864  .00004277  00000-0  36594-3 0  9998,2 55279  70.0039  50.3475 0002587 275.8213  84.2651 14.98338007 44112,6950.168,96.106,573.831,570.235,0.0
55279.0,STARLINK-5323,PAYLOAD,2023-11-02 13:01:49,14.98332722,0.0002687,70.0027,48.1611,260.8242,99.2613,0.00017039,1.941e-05,0.0,0 STARLINK-5323,1 55279U 23010L   23306.54293959  .00001941  00000-0  17039-3 0  9992,2 55279  70.0027  48.1611 0002687 260.8242  99.2613 14.98332722 43923,6950.184,96.107,573.917,570.182,0.0
55279.0,STARLINK-5323,PAYLOAD,2023-11-02 14:37:57,14.98333852,0.0002787,70.0027,47.9927,266.8494,93.2346,0.00016106,1.829e-05,0.0,0 STARLINK-5323,1 55279U 23010L   23306.60969897  .00001829  00000-0  16106-3 0  9999,2 55279  70.0027  47.9927 0002787 266.8494  93.2346 14.98333852 44255,6950.181,96.107,573.983,570.109,0.0
55279.0,STARLINK-5323,PAYLOAD,2023-11-02 16:14:06,14.98334717,0.0002776,70.0027,47.8244,267.3405,92.7436,0.00017113,1.95e-05,0.0,0 STARLINK-5323,1 55279U 23010L   23306.67645861  .00001950  00000-0  17113-3 0  9992,2 55279  70.0027  47.8244 0002776 267.3405  92.7436 14.98334717 44268,6950.178,96.107,573.973,570.114,0.0
55279.0,STARLINK-5323,PAYLOAD,2023-11-03 13:03:50,14.98338019,0.0002897,70.0026,45.6344,275.801,84.2819,0.00026317,3.049e-05,0.0,0 STARLINK-5323,1 55279U 23010L   23307.54433665  .00003049  00000-0  26317-3 0  9993,2 55279  70.0026  45.6344 0002897 275.8010  84.2819 14.98338019 44398,6950.168,96.106,574.047,570.02,0.0
55279.0,STARLINK-5323,PAYLOAD,2023-11-03 16:16:06,14.98337653,0.0003654,70.0028,45.2978,267.4448,92.6293,0.0002339,2.7e-05,0.0,0 STARLINK-5323,1 55279U 23010L   23307.67785382  .00002700  00000-0  23390-3 0  9994,2 55279  70.0028  45.2978 0003654 267.4448  92.6293 14.98337653 44092,6950.169,96.107,574.574,569.495,0.0
55279.0,STARLINK-5323,PAYLOAD,2023-11-04 00:16:47,14.983324,0.000359,70.0035,44.4565,269.5857,90.4891,7.2815e-05,7.76e-06,0.0,0 STARLINK-5323,1 55279U 23010L   23308.01165634  .00000776  00000-0  72815-4 0  9993,2 55279  70.0035  44.4565 0003590 269.5857  90.4891 14.98332400 44140,6950.185,96.107,574.546,569.555,0.0
55279.0,STARLINK-5323,PAYLOAD,2023-11-04 09:53:36,14.98327099,0.0002991,70.002,43.4467,270.1271,89.9545,9.4107e-05,1.03e-05,0.0,0 STARLINK-5323,1 55279U 23010L   23308.41222295  .00001030  00000-0  94107-4 0  9996,2 55279  70.0020  43.4467 0002991 270.1271  89.9545 14.98327099 44200,6950.202,96.107,574.146,569.988,0.0
